CCSDS_OMM_VERS = 2.0
CREATION_DATE  = 
ORIGINATOR     = 

OBJECT_NAME    = SHIJIAN-28 (SJ-28)
OBJECT_ID      = 2025-277A
CENTER_NAME    = EARTH
REF_FRAME      = TEME
TIME_SYSTEM    = UTC
MEAN_ELEMENT_THEORY = SGP/SGP4

EPOCH          = 2025-12-22T03:53:38.626368
MEAN_MOTION    = 1.00266989
ECCENTRICITY   = .0001043
INCLINATION    = 4.9956
RA_OF_ASC_NODE = 274.8090
ARG_OF_PERICENTER = 135.4182
MEAN_ANOMALY   = 215.9428

EPHEMERIS_TYPE = 0
CLASSIFICATION_TYPE = U
NORAD_CAT_ID   = 66549
ELEMENT_SET_NO = 999
REV_AT_EPOCH   = 37
BSTAR          = 0
MEAN_MOTION_DOT = -.335E-5
MEAN_MOTION_DDOT = 0

CCSDS_OMM_VERS = 2.0
CREATION_DATE  = 
ORIGINATOR     = 

OBJECT_NAME    = CZ-7A R/B
OBJECT_ID      = 2025-277B
CENTER_NAME    = EARTH
REF_FRAME      = TEME
TIME_SYSTEM    = UTC
MEAN_ELEMENT_THEORY = SGP/SGP4

EPOCH          = 2025-12-18T08:54:45.891072
MEAN_MOTION    = 2.88841840
ECCENTRICITY   = .6879086
INCLINATION    = 14.3533
RA_OF_ASC_NODE = 266.9093
ARG_OF_PERICENTER = 194.6822
MEAN_ANOMALY   = 125.1782

EPHEMERIS_TYPE = 0
CLASSIFICATION_TYPE = U
NORAD_CAT_ID   = 66550
ELEMENT_SET_NO = 999
REV_AT_EPOCH   = 50
BSTAR          = .30391E-2
MEAN_MOTION_DOT = .266328E-1
MEAN_MOTION_DDOT = .14058E-5

CCSDS_OMM_VERS = 2.0
CREATION_DATE  = 
ORIGINATOR     = 

OBJECT_NAME    = USA 568
OBJECT_ID      = 2024-134K
CENTER_NAME    = EARTH
REF_FRAME      = TEME
TIME_SYSTEM    = UTC
MEAN_ELEMENT_THEORY = SGP/SGP4

EPOCH          = 2025-12-02T16:00:03.000096
MEAN_MOTION    = 15.87051116
ECCENTRICITY   = .0000717
INCLINATION    = 53.1571
RA_OF_ASC_NODE = 236.7807
ARG_OF_PERICENTER = 110.7411
MEAN_ANOMALY   = 313.9012

EPHEMERIS_TYPE = 0
CLASSIFICATION_TYPE = U
NORAD_CAT_ID   = 66551
ELEMENT_SET_NO = 999
REV_AT_EPOCH   = 262
BSTAR          = -.74303E-2
MEAN_MOTION_DOT = -.1709685E-1
MEAN_MOTION_DDOT = 0

CCSDS_OMM_VERS = 2.0
CREATION_DATE  = 
ORIGINATOR     = 

OBJECT_NAME    = GLOBAL-33
OBJECT_ID      = 2025-267A
CENTER_NAME    = EARTH
REF_FRAME      = TEME
TIME_SYSTEM    = UTC
MEAN_ELEMENT_THEORY = SGP/SGP4

EPOCH          = 2025-12-22T09:06:54.990432
MEAN_MOTION    = 15.31669226
ECCENTRICITY   = .0004199
INCLINATION    = 42.0212
RA_OF_ASC_NODE = 1.3398
ARG_OF_PERICENTER = 158.9843
MEAN_ANOMALY   = 201.1167

EPHEMERIS_TYPE = 0
CLASSIFICATION_TYPE = U
NORAD_CAT_ID   = 66554
ELEMENT_SET_NO = 999
REV_AT_EPOCH   = 488
BSTAR          = .46455303E-3
MEAN_MOTION_DOT = .14292E-3
MEAN_MOTION_DDOT = 0

CCSDS_OMM_VERS = 2.0
CREATION_DATE  = 
ORIGINATOR     = 

OBJECT_NAME    = STARLINK-35699
OBJECT_ID      = 2025-268A
CENTER_NAME    = EARTH
REF_FRAME      = TEME
TIME_SYSTEM    = UTC
MEAN_ELEMENT_THEORY = SGP/SGP4

EPOCH          = 2025-12-22T14:00:01.999872
MEAN_MOTION    = 15.52030834
ECCENTRICITY   = .00013244
INCLINATION    = 42.9999
RA_OF_ASC_NODE = 63.5270
ARG_OF_PERICENTER = 284.3783
MEAN_ANOMALY   = 153.2863

EPHEMERIS_TYPE = 0
CLASSIFICATION_TYPE = U
NORAD_CAT_ID   = 66557
ELEMENT_SET_NO = 999
REV_AT_EPOCH   = 608
BSTAR          = -.36585881E-1
MEAN_MOTION_DOT = -.2018383E-1
MEAN_MOTION_DDOT = 0

CCSDS_OMM_VERS = 2.0
CREATION_DATE  = 
ORIGINATOR     = 

OBJECT_NAME    = STARLINK-35695
OBJECT_ID      = 2025-268B
CENTER_NAME    = EARTH
REF_FRAME      = TEME
TIME_SYSTEM    = UTC
MEAN_ELEMENT_THEORY = SGP/SGP4

EPOCH          = 2025-12-22T14:00:01.999872
MEAN_MOTION    = 15.52869144
ECCENTRICITY   = .0001443
INCLINATION    = 43.0005
RA_OF_ASC_NODE = 63.5165
ARG_OF_PERICENTER = 282.1599
MEAN_ANOMALY   = 160.0633

EPHEMERIS_TYPE = 0
CLASSIFICATION_TYPE = U
NORAD_CAT_ID   = 66558
ELEMENT_SET_NO = 999
REV_AT_EPOCH   = 608
BSTAR          = -.35548008E-1
MEAN_MOTION_DOT = -.202166E-1
MEAN_MOTION_DDOT = 0

CCSDS_OMM_VERS = 2.0
CREATION_DATE  = 
ORIGINATOR     = 

OBJECT_NAME    = STARLINK-35419
OBJECT_ID      = 2025-268C
CENTER_NAME    = EARTH
REF_FRAME      = TEME
TIME_SYSTEM    = UTC
MEAN_ELEMENT_THEORY = SGP/SGP4

EPOCH          = 2025-12-22T14:00:01.999872
MEAN_MOTION    = 15.56487087
ECCENTRICITY   = .00013537
INCLINATION    = 43.0005
RA_OF_ASC_NODE = 63.4986
ARG_OF_PERICENTER = 280.6617
MEAN_ANOMALY   = 168.4426

EPHEMERIS_TYPE = 0
CLASSIFICATION_TYPE = U
NORAD_CAT_ID   = 66559
ELEMENT_SET_NO = 999
REV_AT_EPOCH   = 608
BSTAR          = -.37904325E-2
MEAN_MOTION_DOT = -.267069E-2
MEAN_MOTION_DDOT = 0

CCSDS_OMM_VERS = 2.0
CREATION_DATE  = 
ORIGINATOR     = 

OBJECT_NAME    = STARLINK-35411
OBJECT_ID      = 2025-268D
CENTER_NAME    = EARTH
REF_FRAME      = TEME
TIME_SYSTEM    = UTC
MEAN_ELEMENT_THEORY = SGP/SGP4

EPOCH          = 2025-12-22T14:00:01.999872
MEAN_MOTION    = 15.56316465
ECCENTRICITY   = .00014349
INCLINATION    = 43.0006
RA_OF_ASC_NODE = 63.4941
ARG_OF_PERICENTER = 281.0754
MEAN_ANOMALY   = 169.9721

EPHEMERIS_TYPE = 0
CLASSIFICATION_TYPE = U
NORAD_CAT_ID   = 66560
ELEMENT_SET_NO = 999
REV_AT_EPOCH   = 609
BSTAR          = .11035394E-2
MEAN_MOTION_DOT = .80215E-3
MEAN_MOTION_DDOT = 0

CCSDS_OMM_VERS = 2.0
CREATION_DATE  = 
ORIGINATOR     = 

OBJECT_NAME    = STARLINK-35305
OBJECT_ID      = 2025-268E
CENTER_NAME    = EARTH
REF_FRAME      = TEME
TIME_SYSTEM    = UTC
MEAN_ELEMENT_THEORY = SGP/SGP4

EPOCH          = 2025-12-22T14:00:01.999872
MEAN_MOTION    = 15.56366954
ECCENTRICITY   = .00013908
INCLINATION    = 43.0006
RA_OF_ASC_NODE = 63.4845
ARG_OF_PERICENTER = 278.3292
MEAN_ANOMALY   = 176.5547

EPHEMERIS_TYPE = 0
CLASSIFICATION_TYPE = U
NORAD_CAT_ID   = 66561
ELEMENT_SET_NO = 999
REV_AT_EPOCH   = 609
BSTAR          = .49519577E-3
MEAN_MOTION_DOT = .35657E-3
MEAN_MOTION_DDOT = 0

CCSDS_OMM_VERS = 2.0
CREATION_DATE  = 
ORIGINATOR     = 

OBJECT_NAME    = STARLINK-35579
OBJECT_ID      = 2025-268F
CENTER_NAME    = EARTH
REF_FRAME      = TEME
TIME_SYSTEM    = UTC
MEAN_ELEMENT_THEORY = SGP/SGP4

EPOCH          = 2025-12-22T14:00:01.999872
MEAN_MOTION    = 15.56361172
ECCENTRICITY   = .0001504
INCLINATION    = 43.0006
RA_OF_ASC_NODE = 63.4895
ARG_OF_PERICENTER = 275.9416
MEAN_ANOMALY   = 177.0232

EPHEMERIS_TYPE = 0
CLASSIFICATION_TYPE = U
NORAD_CAT_ID   = 66562
ELEMENT_SET_NO = 999
REV_AT_EPOCH   = 609
BSTAR          = .97670684E-3
MEAN_MOTION_DOT = .70989E-3
MEAN_MOTION_DDOT = 0

CCSDS_OMM_VERS = 2.0
CREATION_DATE  = 
ORIGINATOR     = 

OBJECT_NAME    = STARLINK-35437
OBJECT_ID      = 2025-268G
CENTER_NAME    = EARTH
REF_FRAME      = TEME
TIME_SYSTEM    = UTC
MEAN_ELEMENT_THEORY = SGP/SGP4

EPOCH          = 2025-12-22T14:00:01.999872
MEAN_MOTION    = 15.56373065
ECCENTRICITY   = .00015851
INCLINATION    = 43.0007
RA_OF_ASC_NODE = 63.4795
ARG_OF_PERICENTER = 271.0427
MEAN_ANOMALY   = 185.7595

EPHEMERIS_TYPE = 0
CLASSIFICATION_TYPE = U
NORAD_CAT_ID   = 66563
ELEMENT_SET_NO = 999
REV_AT_EPOCH   = 609
BSTAR          = .29876224E-3
MEAN_MOTION_DOT = .21333E-3
MEAN_MOTION_DDOT = 0

CCSDS_OMM_VERS = 2.0
CREATION_DATE  = 
ORIGINATOR     = 

OBJECT_NAME    = STARLINK-35358
OBJECT_ID      = 2025-268H
CENTER_NAME    = EARTH
REF_FRAME      = TEME
TIME_SYSTEM    = UTC
MEAN_ELEMENT_THEORY = SGP/SGP4

EPOCH          = 2025-12-22T14:00:01.999872
MEAN_MOTION    = 15.56371959
ECCENTRICITY   = .00015402
INCLINATION    = 43.0007
RA_OF_ASC_NODE = 63.4747
ARG_OF_PERICENTER = 276.0054
MEAN_ANOMALY   = 182.7149

EPHEMERIS_TYPE = 0
CLASSIFICATION_TYPE = U
NORAD_CAT_ID   = 66564
ELEMENT_SET_NO = 999
REV_AT_EPOCH   = 609
BSTAR          = .31275388E-3
MEAN_MOTION_DOT = .22351E-3
MEAN_MOTION_DDOT = 0

