SHIJIAN-28 (SJ-28)      
1 66549U 25277A   25356.16225262 -.00000335  00000+0  00000+0 0  9990
2 66549   4.9956 274.8090 0001043 135.4182 215.9428  1.00266989   379
CZ-7A R/B               
1 66550U 25277B   25352.37136448  .02663280  14058-5  30391-2 0  9996
2 66550  14.3533 266.9093 6879086 194.6822 125.1782  2.88841840   508
USA 568                 
1 66551U 24134K   25336.66670139 -.01709685  00000+0 -74303-2 0  9990
2 66551  53.1571 236.7807 0000717 110.7411 313.9012 15.87051116  2624
GLOBAL-33               
1 66554U 25267A   25356.37980313  .00014292  00000+0  46455-3 0  9997
2 66554  42.0212   1.3398 0004199 158.9843 201.1167 15.31669226  4883
STARLINK-35699          
1 66557U 25268A   25356.58335648 -.02018383  00000+0 -36586-1 0  9990
2 66557  42.9999  63.5270 0001324 284.3783 153.2863 15.52030834  6084
STARLINK-35695          
1 66558U 25268B   25356.58335648 -.02021660  00000+0 -35548-1 0  9990
2 66558  43.0005  63.5165 0001443 282.1599 160.0633 15.52869144  6086
STARLINK-35419          
1 66559U 25268C   25356.58335648 -.00267069  00000+0 -37904-2 0  9993
2 66559  43.0005  63.4986 0001353 280.6617 168.4426 15.56487087  6089
STARLINK-35411          
1 66560U 25268D   25356.58335648  .00080215  00000+0  11035-2 0  9996
2 66560  43.0006  63.4941 0001434 281.0754 169.9721 15.56316465  6096
STARLINK-35305          
1 66561U 25268E   25356.58335648  .00035657  00000+0  49520-3 0  9998
2 66561  43.0006  63.4845 0001390 278.3292 176.5547 15.56366954  6095
STARLINK-35579          
1 66562U 25268F   25356.58335648  .00070989  00000+0  97671-3 0  9996
2 66562  43.0006  63.4895 0001504 275.9416 177.0232 15.56361172  6093
STARLINK-35437          
1 66563U 25268G   25356.58335648  .00021333  00000+0  29876-3 0  9998
2 66563  43.0007  63.4795 0001585 271.0427 185.7595 15.56373065  6094
STARLINK-35358          
1 66564U 25268H   25356.58335648  .00022351  00000+0  31275-3 0  9996
2 66564  43.0007  63.4747 0001540 276.0054 182.7149 15.56371959  6096
